PERSEUS-M1              
1 40039U 14033AF  26181.81790235  .00001294  00000+0  12172-3 0  9991
2 40039  97.9649 126.1740 0009996 250.1954 109.8189 14.95677159652678
POLYITAN-1              
1 40042U 14033AJ  26182.34252855  .00026215  00000+0  80280-3 0  9990
2 40042  98.0933 209.9470 0008761 102.5893 257.6328 15.33763480655767
TIGRISAT                
1 40043U 14033AK  26182.06202210  .00001881  00000+0  22092-3 0  9999
2 40043  97.7848 331.7571 0049817  30.6226 329.7881 14.85211339647687
AEROCUBE 6A             
1 40045U 14033AM  26182.45010266  .00006204  00000+0  51965-3 0  9997
2 40045  97.7227 349.2487 0037860 328.2891  31.6051 14.98230566648753
AEROCUBE 6B             
1 40046U 14033AN  26182.43853831  .00006240  00000+0  50317-3 0  9999
2 40046  97.7225 349.0597 0037778 319.1201  40.7190 14.99693170648899
CANX-4                  
1 40055U 14034C   26182.47249023  .00000953  00000+0  12937-3 0  9997
2 40055  98.3102  58.3088 0012090 330.9197  29.1340 14.81290157646648
CANX-5                  
1 40056U 14034D   26182.40320789  .00001040  00000+0  14055-3 0  9991
2 40056  98.3105  58.2814 0012099 331.3634  28.6911 14.81307917637447
UKUBE-1                 
1 40074U 14037F   26182.24887478  .00010051  00000+0  56113-3 0  9992
2 40074  98.4232 187.0001 0003192 110.4842 249.6729 15.13766738650688
BRITE-PL2 (HEWELIUSZ)   
1 40119U 14049B   26182.29838104  .00001757  00000+0  16731-3 0  9997
2 40119  97.9112 294.4083 0015140  65.3963 294.8832 14.94645278643558
AEROCUBE 5C             
1 40965U 15058B   26182.51987638  .00002403  00000+0  21792-3 0  9991
2 40965  64.7653 218.0001 0131467  57.6805 303.6958 14.91511742367793
AEROCUBE 7              
1 40966U 15058C   26182.47517300  .00004007  00000+0  32266-3 0  9992
2 40966  64.7601 200.0598 0121187  56.0469 305.2094 14.95810439368098
FOX-1A (AO-85)          
1 40967U 15058D   26182.57211453  .00002259  00000+0  20846-3 0  9992
2 40967  64.7738 234.2784 0131363  51.0040 310.2684 14.91028580115717
SINOD-D 1               
1 40968U 15058E   26182.25086071  .00003954  00000+0  31794-3 0  9991
2 40968  64.7729 214.8681 0119986  47.5376 313.5805 14.95988886118764
SNAP-3 ALICE            
1 40970U 15058G   26182.64483480  .00153150  00000+0  15728-2 0  9994
2 40970  64.7496  53.8264 0023923   0.6825 359.4351 15.63832969119144
LMRST-SAT               
1 40971U 15058H   26182.46401465  .00002186  00000+0  20349-3 0  9996
2 40971  64.7744 230.9794 0132935  53.0698 308.2503 14.90644908115680
SNAP-3 EDDIE            
1 40972U 15058J   26182.62353045  .00154442  00000+0  15117-2 0  9994
2 40972  64.7407  44.5173 0024635   3.9967 356.1373 15.65017243121286
PROPCUBE 3              
1 40973U 15058K   26182.46449158  .00003238  00000+0  27177-3 0  9994
2 40973  64.7664 207.9257 0124888  54.2868 306.9789 14.94330236116931
BISONSAT                
1 40974U 15058L   26182.14687735  .00020210  00000+0  95517-3 0  9997
2 40974  64.7579 128.4988 0080659  41.5256 319.1958 15.16564131117733
SNAP-3 JIMI             
1 40975U 15058M   26182.30122761  .00008277  00000+0  56124-3 0  9999
2 40975  64.7628 175.1114 0106943  49.7120 311.3284 15.02442606116343
PROPCUBE 1 (FLORA)      
1 40976U 15058N   26182.63349766  .00002044  00000+0  19878-3 0  9993
2 40976  64.7741 250.4618 0131575  55.2956 306.0468 14.89279081118418
SINOD-D 3               
1 40977U 15058P   26182.56538395  .00003082  00000+0  26394-3 0  9998
2 40977  64.7709 230.9185 0120108  52.4313 308.7637 14.94093914116905
HORYU-4                 
1 41340U 16012D   26182.11619460  .03107806 -38471-5  12696-2 0  9999
2 41340  30.9802 335.3658 0009825 346.1695  13.8704 16.22032858573057
RAVAN                   
1 41849U 16067B   26182.13348233  .00076979  00000+0  10967-2 0  9994
2 41849  97.9870  73.3297 0002065 331.4556  28.6583 15.56066980529867
CELTEE 1                
1 41850U 16067C   26182.36309964  .00006931  00000+0  32701-3 0  9991
2 41850  98.0653  49.8968 0001706 126.6304 233.5086 15.19821344528034
OPTICUBE 04             
1 41851U 16067D   26182.32941955  .00003016  00000+0  19091-3 0  9998
2 41851  98.0685  35.3503 0016943  71.7843 288.5227 15.09722264527308
AEROCUBE 8D             
1 41852U 16067E   26182.46447911  .00009033  00000+0  36944-3 0  9998
2 41852  98.0659  53.7221 0005021  89.6890 270.4921 15.24595526528247
AEROCUBE 8C             
1 41853U 16067F   26182.35587173  .00010093  00000+0  40921-3 0  9990
2 41853  98.0534  50.8147 0005644  28.9587 331.1961 15.24848091528220
CORVUS BC2              
1 42846U 17042X   26181.41407017  .00002906  00000+0  20105-3 0  9997
2 42846  97.4068 342.2504 0014301  69.6054 290.6709 15.06373686489053
CORVUS BC1              
1 42847U 17042Y   26182.00499570  .00004247  00000+0  29071-3 0  9990
2 42847  97.4105 343.6415 0012658  46.1860 314.0412 15.06544991489174
MAKERSAT 0              
1 43016U 17073D   26182.22015336  .00024201  00000+0  64730-3 0  9994
2 43016  97.4603  64.8514 0104883 222.2332 137.0798 15.32553580468610
